*******************************************************************************
 Revised: Jan 08, 2014           Sycorax / (Uranus)                         717

           http://ssd.jpl.nasa.gov/sat_props.html  (physical properties)
           http://ssd.jpl.nasa.gov/sat_elem.html   (mean elements)

 SATELLITE PHYSICAL PROPERTIES:
  Radius (km)           = ~60               Density (g cm^-3)   =
  Mass (10^20 kg )      =                   Geometric Albedo    =   0.07 
                                            V(1,0)              =  

 SATELLITE ORBITAL DATA:
  Semi-major axis, a (km) = 122 (10^5)      Orbital period      = 1290 days
  Eccentricity, e         =   0.5           Rotational period   = 
  Inclination, i  (deg)   =  97.8 (retro)
*******************************************************************************
 
 
*******************************************************************************
Ephemeris / WWW_USER Sun Nov 12 09:37:03 2017 Pasadena, USA      / Horizons    
*******************************************************************************
Target body name: Sycorax (717)                   {source: ura112}
Center body name: Solar System Barycenter (0)     {source: DE431mx}
Center-site name: BODY CENTER
*******************************************************************************
Start time      : A.D. 2017-Jul-10 00:00:00.0000 TDB
Stop  time      : A.D. 2020-Aug-13 00:00:00.0000 TDB
Step-size       : 1440 minutes
*******************************************************************************
Center geodetic : 0.00000000,0.00000000,0.0000000 {E-lon(deg),Lat(deg),Alt(km)}
Center cylindric: 0.00000000,0.00000000,0.0000000 {E-lon(deg),Dxy(km),Dz(km)}
Center radii    : (undefined)                                                  
Output units    : KM-S                                                         
Output type     : GEOMETRIC cartesian states
Output format   : 3 (position, velocity, LT, range, range-rate)
Reference frame : ICRF/J2000.0                                                 
Coordinate systm: Ecliptic and Mean Equinox of Reference Epoch                 
*******************************************************************************
            JDTDB,            Calendar Date (TDB),                      X,                      Y,                      Z,                     VX,                     VY,                     VZ,                     LT,                     RG,                     RR,
**************************************************************************************************************************************************************************************************************************************************************************
$$SOE
2458511.500000000, A.D. 2019-Jan-28 00:00:00.0000,  2.530557357856297E+09,  1.554535019884375E+09, -2.315681135843396E+07, -3.349398148762275E+00,  6.198824641457313E+00,  1.282739248909870E-02,  9.906817635731319E+03,  2.969989209973640E+09,  3.906239161148896E-01,
2458512.500000000, A.D. 2019-Jan-29 00:00:00.0000,  2.530268021253400E+09,  1.555070443630770E+09, -2.315576286507046E+07, -3.348212709215227E+00,  6.195243901164598E+00,  1.144544178228646E-02,  9.906930298191439E+03,  2.970022985329484E+09,  3.912091297295663E-01,
2458513.500000000, A.D. 2019-Jan-30 00:00:00.0000,  2.529978785959583E+09,  1.555605558090997E+09, -2.315483321561277E+07, -3.347052983756457E+00,  6.191665261453251E+00,  1.007635504525206E-02,  9.907043125957905E+03,  2.970056810242924E+09,  3.917711371161944E-01,
2458514.500000000, A.D. 2019-Jan-31 00:00:00.0000,  2.529689649765390E+09,  1.556140363452199E+09, -2.315402130406690E+07, -3.345918689559531E+00,  6.188088852520139E+00,  8.720006254370194E-03,  9.907156112389512E+03,  2.970090682722976E+09,  3.923102623321369E-01,
2458515.500000000, A.D. 2019-Feb-01 00:00:00.0000,  2.529400610485659E+09,  1.556674859912597E+09, -2.315332603527379E+07, -3.344809547124266E+00,  6.184514800567460E+00,  7.376270635464532E-03,  9.907269250937734E+03,  2.970124600806442E+09,  3.928268244472347E-01,
2458516.500000000, A.D. 2019-Feb-02 00:00:00.0000,  2.529111665959234E+09,  1.557209047681144E+09, -2.315274632480061E+07, -3.343725280246828E+00,  6.180943227884207E+00,  6.045024656971876E-03,  9.907382535145282E+03,  2.970158562557475E+09,  3.933211376100405E-01,
2458517.500000000, A.D. 2019-Feb-03 00:00:00.0000,  2.528822814048680E+09,  1.557742926977193E+09, -2.315228109883475E+07, -3.342665615989655E+00,  6.177374252927854E+00,  4.726146022998368E-03,  9.907495958644709E+03,  2.970192566067163E+09,  3.937935111143824E-01,
2458518.500000000, A.D. 2019-Feb-04 00:00:00.0000,  2.528534052640006E+09,  1.558276498030172E+09, -2.315192929407620E+07, -3.341630284651401E+00,  6.173807990406060E+00,  3.419513666393481E-03,  9.907609515157010E+03,  2.970226609453108E+09,  3.942442494660193E-01,
2458519.500000000, A.D. 2019-Feb-05 00:00:00.0000,  2.528245379642382E+09,  1.558809761079255E+09, -2.315168985763299E+07, -3.340619019736862E+00,  6.170244551358353E+00,  2.125007741795581E-03,  9.907723198490261E+03,  2.970260690859017E+09,  3.946736524493725E-01,
2458520.500000000, A.D. 2019-Feb-06 00:00:00.0000,  2.527956792987869E+09,  1.559342716373060E+09, -2.315156174691486E+07, -3.339631557926912E+00,  6.166684043237821E+00,  8.425096187139047E-04,  9.907837002538259E+03,  2.970294808454297E+09,  3.950820151943418E-01,
2458521.500000000, A.D. 2019-Feb-07 00:00:00.0000,  2.527668290631139E+09,  1.559875364169334E+09, -2.315154392952907E+07, -3.338667639048439E+00,  6.163126569992810E+00, -4.280981254236593E-04,  9.907950921279200E+03,  2.970328960433655E+09,  3.954696282432048E-01,
2458522.500000000, A.D. 2019-Feb-08 00:00:00.0000,  2.527379870549211E+09,  1.560407704734658E+09, -2.315163538317645E+07, -3.337727006044273E+00,  6.159572232148614E+00, -1.686931712201911E-03,  9.908064948774354E+03,  2.970363145016707E+09,  3.958367776175978E-01,
2458523.500000000, A.D. 2019-Feb-09 00:00:00.0000,  2.527091530741179E+09,  1.560939738344151E+09, -2.315183509554720E+07, -3.336809404943126E+00,  6.156021126889164E+00, -2.934106169155459E-03,  9.908179079166786E+03,  2.970397360447587E+09,  3.961837448855691E-01,
2458524.500000000, A.D. 2019-Feb-10 00:00:00.0000,  2.526803269227948E+09,  1.561471465281191E+09, -2.315214206421924E+07, -3.335914584829519E+00,  6.152473348138728E+00, -4.169735336704061E-03,  9.908293306680072E+03,  2.970431604994566E+09,  3.965108072287264E-01,
2458525.500000000, A.D. 2019-Feb-11 00:00:00.0000,  2.526515084051970E+09,  1.562002885837130E+09, -2.315255529655480E+07, -3.335042297813718E+00,  6.148928986643591E+00, -5.393931875097735E-03,  9.908407625617043E+03,  2.970465876949677E+09,  3.968182375094617E-01,
2458526.500000000, A.D. 2019-Feb-12 00:00:00.0000,  2.526226973276988E+09,  1.562534000311027E+09, -2.315307380959952E+07, -3.334192299001673E+00,  6.145388130053767E+00, -6.606807271345883E-03,  9.908522030358567E+03,  2.970500174628345E+09,  3.971063043382455E-01,
2458527.500000000, A.D. 2019-Feb-13 00:00:00.0000,  2.525938934987773E+09,  1.563064809009384E+09, -2.315369662998092E+07, -3.333364346464938E+00,  6.141850863004668E+00, -7.808471846159293E-03,  9.908636515362301E+03,  2.970534496369019E+09,  3.973752721410194E-01,
2458528.500000000, A.D. 2019-Feb-14 00:00:00.0000,  2.525650967289872E+09,  1.563595312245888E+09, -2.315442279380774E+07, -3.332558201210619E+00,  6.138317267198812E+00, -8.999034760884594E-03,  9.908751075161535E+03,  2.970568840532819E+09,  3.976254012266507E-01,
2458529.500000000, A.D. 2019-Feb-15 00:00:00.0000,  2.525363068309356E+09,  1.564125510341162E+09, -2.315525134657133E+07, -3.331773627151299E+00,  6.134787421487510E+00, -1.017860402444226E-02,  9.908865704363985E+03,  2.970603205503180E+09,  3.978569478544829E-01,
2458530.500000000, A.D. 2019-Feb-16 00:00:00.0000,  2.525075236192569E+09,  1.564655403622518E+09, -2.315618134304476E+07, -3.331010391074975E+00,  6.131261401952558E+00, -1.134728650026773E-02,  9.908980397650639E+03,  2.970637589685503E+09,  3.980701643019490E-01,
2458531.500000000, A.D. 2019-Feb-17 00:00:00.0000,  2.524787469105882E+09,  1.565184992423729E+09, -2.315721184718513E+07, -3.330268262614984E+00,  6.127739281987932E+00, -1.250518791324229E-02,  9.909095149774645E+03,  2.970671991506819E+09,  3.982652989322873E-01,
2458532.500000000, A.D. 2019-Feb-18 00:00:00.0000,  2.524499765235446E+09,  1.565714277084794E+09, -2.315834193203497E+07, -3.329547014219950E+00,  6.124221132381478E+00, -1.365241285663599E-02,  9.909209955560151E+03,  2.970706409415448E+09,  3.984425962623087E-01,
2458533.500000000, A.D. 2019-Feb-19 00:00:00.0000,  2.524212122786954E+09,  1.566243257951719E+09, -2.315957067962551E+07, -3.328846421123706E+00,  6.120707021396605E+00, -1.478906479904163E-02,  9.909324809901240E+03,  2.970740841880675E+09,  3.986022970302629E-01,
2458534.500000000, A.D. 2019-Feb-20 00:00:00.0000,  2.523924539985399E+09,  1.566771935376302E+09, -2.316089718087864E+07, -3.328166261315232E+00,  6.117197014853977E+00, -1.591524609131278E-02,  9.909439707760839E+03,  2.970775287392424E+09,  3.987446382637763E-01,
2458535.500000000, A.D. 2019-Feb-21 00:00:00.0000,  2.523637015074838E+09,  1.567300309715924E+09, -2.316232053551185E+07, -3.327506315508586E+00,  6.113691176213207E+00, -1.703105797350357E-02,  9.909554644169659E+03,  2.970809744460938E+09,  3.988698533478683E-01,
2458536.500000000, A.D. 2019-Feb-22 00:00:00.0000,  2.523349546318157E+09,  1.567828381333351E+09, -2.316383985194230E+07, -3.326866367112843E+00,  6.110189566654543E+00, -1.813660058180222E-02,  9.909669614225155E+03,  2.970844211616471E+09,  3.989781720930413E-01,
2458537.500000000, A.D. 2019-Feb-23 00:00:00.0000,  2.523062131996840E+09,  1.568356150596540E+09, -2.316545424719083E+07, -3.326246202202019E+00,  6.106692245160571E+00, -1.923197295546908E-02,  9.909784613090507E+03,  2.970878687408981E+09,  3.990698208034674E-01,
